OBJECT_NAME,OBJECT_ID,EPOCH,MEAN_MOTION,ECCENTRICITY,INCLINATION,RA_OF_ASC_NODE,ARG_OF_PERICENTER,MEAN_ANOMALY,EPHEMERIS_TYPE,CLASSIFICATION_TYPE,NORAD_CAT_ID,ELEMENT_SET_NO,REV_AT_EPOCH,BSTAR,MEAN_MOTION_DOT,MEAN_MOTION_DDOT
SJ-11-01,2009-061A,2026-06-08T12:38:54.508992,14.63682329,.0012234,98.0054,140.7591,53.7027,93.9580,0,U,36088,999,88322,.89725E-4,.421E-5,0
COSMOS 2455,2009-063A,2026-06-08T11:35:29.473728,13.97050045,.0003458,67.1485,274.0672,260.4588,99.6106,0,U,36095,999,84391,.27812E-4,-.36E-6,0
INTELSAT 14 (IS-14),2009-064A,2026-06-08T06:19:25.816800,1.00270969,.0002803,0.0150,335.8760,117.4459,213.2034,0,U,36097,999,6051,0,-.258E-5,0
EUTELSAT 36B,2009-065A,2026-06-08T11:54:43.610112,1.00270820,.0006062,0.4682,81.0117,355.2665,49.7762,0,U,36101,999,6062,0,.128E-5,0
INTELSAT 15 (IS-15),2009-067A,2026-06-08T12:04:35.164128,1.00271434,.0002286,0.0124,329.2573,111.0886,82.8468,0,U,36106,999,4114,0,-.169E-5,0
WGS F3 (USA 211),2009-068A,2026-06-08T11:13:42.404160,1.00269461,.0000338,0.3345,85.8076,28.2389,181.2633,0,U,36108,999,4650,0,.8E-6,0
YAOGAN-7,2009-069A,2026-06-08T10:09:27.251712,14.78001090,.0025957,98.0083,45.3441,68.7505,291.6475,0,U,36110,999,88833,.79015E-4,.52E-5,0
COSMOS 2456 [GLONASS-M],2009-070A,2026-06-05T08:41:26.452608,2.13103930,.00050343,65.0050,71.3748,326.0196,218.4437,0,U,36111,999,12817,0,-.11E-6,0
COSMOS 2457 [GLONASS-M],2009-070B,2026-06-08T10:16:51.926592,2.13101383,.0002449,64.9920,71.1146,127.6857,16.6154,0,U,36112,999,12824,0,-.19E-6,0
YAOGAN-8,2009-072A,2026-06-08T12:38:00.737952,13.05078514,.002095,100.2184,44.4953,345.6925,14.3586,0,U,36121,999,78754,.10116E-2,.286E-5,0
XIWANG-1 (HOPE-1),2009-072B,2026-06-08T12:05:44.102688,13.16439073,.0006793,100.4026,113.4750,253.9299,106.1066,0,U,36122,999,79186,-.19076E-3,-.117E-5,0
DIRECTV 12,2009-075A,2026-06-08T11:06:42.723072,1.00270319,.0000324,0.0438,143.8857,286.9865,249.9377,0,U,36131,999,4646,0,-.87E-6,0
BEIDOU-2 G1,2010-001A,2026-06-08T12:20:19.402944,1.00274524,.0002679,4.2723,60.4329,306.6691,215.3404,0,U,36287,999,6008,0,-.264E-5,0
SDO,2010-005A,2026-06-08T07:45:40.928832,1.00270840,.0001516,34.6325,86.4781,53.0773,131.5755,0,U,36395,999,5997,0,-.6E-6,0
INTELSAT 16 (IS-16),2010-006A,2026-06-08T07:53:10.212288,1.00270005,.0002161,0.0113,313.3517,141.4643,204.0108,0,U,36397,999,5956,0,-.229E-5,0
COSMOS 2460 [GLONASS-M],2010-007C,2026-06-05T22:24:35.054784,2.13101712,.00021228,65.4275,314.8474,103.7485,288.7249,0,U,36402,999,12649,0,-.3E-6,0
EWS-G2 (GOES 15),2010-008A,2026-06-08T11:58:28.250112,1.00275841,.0005476,1.2528,83.0061,38.2868,18.8165,0,U,36411,999,5955,0,.35E-6,0
YAOGAN-9 01A,2010-009A,2026-06-08T08:33:52.594272,13.45702091,.0536671,63.3659,21.0705,21.6861,340.5985,0,U,36413,999,79878,.78339E-4,.2E-6,0
YAOGAN-9 01B,2010-009B,2026-06-08T09:51:51.772896,13.45709887,.0537514,63.3673,20.5687,20.8511,341.3557,0,U,36414,999,79856,.62636E-4,-.2E-7,0
YAOGAN-9 01C,2010-009C,2026-06-08T09:49:24.091104,13.45711443,.0538199,63.3669,21.0854,21.1818,341.0598,0,U,36415,999,79872,.70242E-4,.9E-7,0
ECHOSTAR 14,2010-010A,2026-06-08T11:06:23.264064,1.00272048,.0002462,0.0469,90.6638,3.6032,210.2851,0,U,36499,999,4646,0,.16E-6,0
CRYOSAT 2,2010-013A,2026-06-08T12:50:58.249824,14.51896687,.0002225,92.0348,275.1990,86.2057,273.9405,0,U,36508,999,85682,.34937E-4,.144E-5,0
SES-1,2010-016A,2026-06-08T11:11:30.274368,1.00271743,.0002775,0.0151,321.1589,118.0488,244.5331,0,U,36516,999,5894,0,-.99E-6,0
COSMOS 2463,2010-017A,2026-06-08T08:45:19.533024,13.71665190,.0036894,82.9608,256.1872,152.7015,273.6741,0,U,36519,999,80672,.38832E-4,.51E-6,0
ASTRA 3B,2010-021A,2026-06-08T08:21:22.509216,1.00274280,.000447,1.4479,83.6606,351.9180,330.0017,0,U,36581,999,5877,0,.153E-5,0
COMSATBW-2,2010-021B,2026-06-08T06:36:01.727136,1.00269942,.0002716,0.0214,33.8866,57.0974,277.8925,0,U,36582,999,5886,0,.104E-5,0
NAVSTAR 65 (USA 213),2010-022A,2026-06-06T14:14:54.748608,2.00561961,.0126253,54.2711,208.9889,66.1149,10.1649,0,U,36585,999,11738,0,.48E-6,0
SERVIS 2,2010-023A,2026-06-08T11:22:29.214336,13.16052891,.0016709,100.4282,347.3103,295.7871,128.3047,0,U,36588,999,76962,.1267E-3,.3E-7,0
BEIDOU-2 G3,2010-024A,2026-06-08T08:37:42.014784,1.00272900,.0008405,4.4940,61.5520,350.9162,53.4094,0,U,36590,999,5868,0,-.121E-5,0
BADR-5,2010-025A,2026-06-08T06:41:01.248288,1.00278136,.0003452,0.0630,115.0337,66.9105,205.5484,0,U,36592,999,5312,0,.17E-5,0
SJ-12,2010-027A,2026-06-08T11:35:49.352640,15.16643491,.0008112,97.7623,176.9692,120.6709,239.5323,0,U,36596,999,87354,.2331E-3,.4492E-4,0
